{
  "norad_id": 67553,
  "name": "STARLINK-36569",
  "history": [
    {
      "epoch": "2026-04-15T15:35:50.078688Z",
      "apogee_km": 344.84394079877075,
      "perigee_km": 342.82734900529977,
      "latitude_deg": 5.540976314944435e-06,
      "longitude_deg": -85.33347378287567,
      "height_km": 347.4770812082872,
      "semi_major_axis_km": 6721.9726449020345,
      "eccentricity": 0.00015,
      "inclination_deg": 97.2855,
      "raan_deg": 352.4341,
      "arg_perigee_deg": 118.106,
      "mean_anomaly_deg": 242.0357,
      "mean_motion_rev_day": 15.75279607
    },
    {
      "epoch": "2026-04-16T14:28:01.983072Z",
      "apogee_km": 345.83973861854065,
      "perigee_km": 342.05654909957775,
      "latitude_deg": -3.779343489594623e-05,
      "longitude_deg": -68.32180446816903,
      "height_km": 346.71618489902824,
      "semi_major_axis_km": 6722.085143859059,
      "eccentricity": 0.0002814,
      "inclination_deg": 97.2854,
      "raan_deg": 353.4346,
      "arg_perigee_deg": 77.9274,
      "mean_anomaly_deg": 282.2306,
      "mean_motion_rev_day": 15.75240062
    },
    {
      "epoch": "2026-04-17T22:29:06.204768Z",
      "apogee_km": 346.4099049821998,
      "perigee_km": 341.3635473304985,
      "latitude_deg": 6.566940715019465e-05,
      "longitude_deg": 171.49486787628877,
      "height_km": 347.59361785575504,
      "semi_major_axis_km": 6722.023726156349,
      "eccentricity": 0.00037536,
      "inclination_deg": 97.2849,
      "raan_deg": 354.8338,
      "arg_perigee_deg": 102.4677,
      "mean_anomaly_deg": 257.7009,
      "mean_motion_rev_day": 15.75261651
    },
    {
      "epoch": "2026-04-18T15:15:22.167072Z",
      "apogee_km": 344.5744213874832,
      "perigee_km": 342.8495949319895,
      "latitude_deg": -9.54332530128918e-05,
      "longitude_deg": -80.02688580438414,
      "height_km": 347.3886416121577,
      "semi_major_axis_km": 6721.849008159736,
      "eccentricity": 0.0001283,
      "inclination_deg": 97.286,
      "raan_deg": 355.5673,
      "arg_perigee_deg": 126.2267,
      "mean_anomaly_deg": 233.9116,
      "mean_motion_rev_day": 15.75323069
    },
    {
      "epoch": "2026-04-19T14:07:35.351904Z",
      "apogee_km": 345.0712594778961,
      "perigee_km": 342.61773623117915,
      "latitude_deg": 7.047301353162e-07,
      "longitude_deg": -63.02198661230402,
      "height_km": 347.3549507235515,
      "semi_major_axis_km": 6721.981497854537,
      "eccentricity": 0.0001825,
      "inclination_deg": 97.2847,
      "raan_deg": 356.5664,
      "arg_perigee_deg": 106.322,
      "mean_anomaly_deg": 253.8246,
      "mean_motion_rev_day": 15.75276495
    },
    {
      "epoch": "2026-04-20T14:31:15.770496Z",
      "apogee_km": 345.61453196504044,
      "perigee_km": 342.1420733000059,
      "latitude_deg": 5.5472978725170224e-05,
      "longitude_deg": -68.87565523901928,
      "height_km": 347.16651699236445,
      "semi_major_axis_km": 6722.015302632522,
      "eccentricity": 0.00025829,
      "inclination_deg": 97.2847,
      "raan_deg": 357.633,
      "arg_perigee_deg": 94.0976,
      "mean_anomaly_deg": 266.0585,
      "mean_motion_rev_day": 15.75264612
    },
    {
      "epoch": "2026-04-21T16:26:24.459648Z",
      "apogee_km": 345.20548751876595,
      "perigee_km": 343.00865815576344,
      "latitude_deg": -2.8318552211908838e-05,
      "longitude_deg": -97.59341086013015,
      "height_km": 347.3110560753447,
      "semi_major_axis_km": 6722.244072837265,
      "eccentricity": 0.0001634,
      "inclination_deg": 97.2842,
      "raan_deg": 358.7659,
      "arg_perigee_deg": 91.9965,
      "mean_anomaly_deg": 268.1487,
      "mean_motion_rev_day": 15.75184199
    },
    {
      "epoch": "2026-04-22T15:18:36.527328Z",
      "apogee_km": 345.25085380329165,
      "perigee_km": 342.3980533623917,
      "latitude_deg": -2.564240407972504e-05,
      "longitude_deg": -80.58323387301836,
      "height_km": 347.54634616723354,
      "semi_major_axis_km": 6721.961453582841,
      "eccentricity": 0.0002122,
      "inclination_deg": 97.2839,
      "raan_deg": 359.7656,
      "arg_perigee_deg": 112.962,
      "mean_anomaly_deg": 247.1869,
      "mean_motion_rev_day": 15.75283541
    }
  ]
}